NORAD_CAT_ID,OBJECT_NAME,OBJECT_TYPE,EPOCH,MEAN_MOTION,ECCENTRICITY,INCLINATION,RA_OF_ASC_NODE,ARG_OF_PERICENTER,MEAN_ANOMALY,BSTAR,MEAN_MOTION_DOT,MEAN_MOTION_DDOT,TLE_LINE0,TLE_LINE1,TLE_LINE2,SEMIMAJOR_AXIS,PERIOD,APOGEE,PERIGEE,DECAYED
53262.0,STARLINK-4085,PAYLOAD,2023-12-17 21:51:35,15.08841461,0.0002423,53.2179,242.8331,48.794,311.326,0.0001678,2.383e-05,0.0,0 STARLINK-4085,1 53262U 22086W   23351.91082946  .00002383  00000-0  16780-3 0  9990,2 53262  53.2179 242.8331 0002423  48.7940 311.3260 15.08841461 78361,6917.876,95.437,541.417,538.065,0.0
53262.0,STARLINK-4085,PAYLOAD,2023-12-17 23:26:58,15.08843294,0.0002084,53.218,242.5363,57.0508,303.0684,0.00015827,2.232e-05,0.0,0 STARLINK-4085,1 53262U 22086W   23351.97706805  .00002232  00000-0  15827-3 0  9997,2 53262  53.2180 242.5363 0002084  57.0508 303.0684 15.08843294 78196,6917.87,95.437,541.177,538.294,0.0
53262.0,STARLINK-4085,PAYLOAD,2023-12-18 20:07:00,15.08835152,0.0001519,53.218,238.6693,72.2283,287.8874,-4.8336e-05,-1.057e-05,0.0,0 STARLINK-4085,1 53262U 22086W   23352.83819851 -.00001057  00000-0 -48336-4 0  9997,2 53262  53.2180 238.6693 0001519  72.2283 287.8874 15.08835152 78328,6917.895,95.438,540.811,538.709,0.0
53262.0,STARLINK-4085,PAYLOAD,2023-12-18 21:42:23,15.08835916,0.0001585,53.2176,238.3729,72.0133,288.1032,-3.8545e-05,-9.01e-06,0.0,0 STARLINK-4085,1 53262U 22086W   23352.90443816 -.00000901  00000-0 -38545-4 0  9997,2 53262  53.2176 238.3729 0001585  72.0133 288.1032 15.08835916 78514,6917.893,95.438,540.854,538.661,0.0
53262.0,STARLINK-4085,PAYLOAD,2023-12-18 23:17:46,15.08837155,0.0001535,53.2177,238.0745,78.4731,281.6433,-3.0119e-05,-7.67e-06,0.0,0 STARLINK-4085,1 53262U 22086W   23352.97067671 -.00000767  00000-0 -30119-4 0  9994,2 53262  53.2177 238.0745 0001535  78.4731 281.6433 15.08837155 78520,6917.889,95.438,540.816,538.692,0.0
53262.0,STARLINK-4085,PAYLOAD,2023-12-19 19:57:46,15.08841881,0.0001421,53.2171,234.2062,92.6574,267.4581,2.9358e-05,1.79e-06,0.0,0 STARLINK-4085,1 53262U 22086W   23353.83179199  .00000179  00000-0  29358-4 0  9997,2 53262  53.2171 234.2062 0001421  92.6574 267.4581 15.08841881 78472,6917.875,95.437,540.723,538.757,0.0
53262.0,STARLINK-4085,PAYLOAD,2023-12-19 23:08:33,15.08844075,0.0001453,53.2164,233.6119,95.3195,264.7963,0.00019174,2.765e-05,0.0,0 STARLINK-4085,1 53262U 22086W   23353.96427092  .00002765  00000-0  19174-3 0  9996,2 53262  53.2164 233.6119 0001453  95.3195 264.7963 15.08844075 78678,6917.868,95.437,540.738,538.728,0.0
53262.0,STARLINK-4085,PAYLOAD,2023-12-20 21:23:56,15.08842854,0.0001447,53.2159,229.449,111.611,248.5036,0.00011109,1.481e-05,0.0,0 STARLINK-4085,1 53262U 22086W   23354.89163140  .00001481  00000-0  11109-3 0  9994,2 53262  53.2159 229.4490 0001447 111.6110 248.5036 15.08842854 78819,6917.872,95.437,540.738,538.736,0.0
53262.0,STARLINK-4085,PAYLOAD,2023-12-21 22:50:07,15.08838454,0.000161,53.2163,224.6886,79.5388,280.5786,-1.816e-05,-5.77e-06,0.0,0 STARLINK-4085,1 53262U 22086W   23355.95147730 -.00000577  00000-0 -18160-4 0  9991,2 53262  53.2163 224.6886 0001610  79.5388 280.5786 15.08838454 78977,6917.885,95.438,540.864,538.636,0.0
53262.0,STARLINK-4085,PAYLOAD,2023-12-22 21:05:31,15.08844577,0.0001468,53.2153,220.5278,86.0927,274.0233,0.00012345,1.678e-05,0.0,0 STARLINK-4085,1 53262U 22086W   23356.87883529  .00001678  00000-0  12345-3 0  9995,2 53262  53.2153 220.5278 0001468  86.0927 274.0233 15.08844577 79114,6917.866,95.437,540.747,538.716,0.0
53262.0,STARLINK-4085,PAYLOAD,2023-12-22 22:40:56,15.08809442,0.000174,53.216,220.2313,89.7176,270.4016,0.0012597,0.000198,0.0,0 STARLINK-4085,1 53262U 22086W   23356.94509483  .00019800  00000-0  12597-2 0  9991,2 53262  53.2160 220.2313 0001740  89.7176 270.4016 15.08809442 78949,6917.974,95.439,541.043,538.635,0.0
53262.0,STARLINK-4085,PAYLOAD,2023-12-23 14:34:46,15.0883959,0.0001551,53.2156,217.2598,92.8038,267.3131,8.9673e-05,1.139e-05,0.0,0 STARLINK-4085,1 53262U 22086W   23357.60748000  .00001139  00000-0  89673-4 0  9992,2 53262  53.2156 217.2598 0001551  92.8038 267.3131 15.08839590 79229,6917.882,95.438,540.82,538.674,0.0
53262.0,STARLINK-4085,PAYLOAD,2023-12-23 19:20:55,15.08838634,0.0001567,53.2155,216.3661,91.4681,268.649,7.5714e-05,9.17e-06,0.0,0 STARLINK-4085,1 53262U 22086W   23357.80620123  .00000917  00000-0  75714-4 0  9993,2 53262  53.2155 216.3661 0001567  91.4681 268.6490 15.08838634 79078,6917.885,95.438,540.834,538.666,0.0
53262.0,STARLINK-4085,PAYLOAD,2023-12-23 22:31:42,15.08839235,0.0001562,53.2156,215.7716,87.8607,272.2564,8.0728e-05,9.97e-06,0.0,0 STARLINK-4085,1 53262U 22086W   23357.93868127  .00000997  00000-0  80728-4 0  9994,2 53262  53.2156 215.7716 0001562  87.8607 272.2564 15.08839235 79278,6917.883,95.438,540.828,538.667,0.0
53262.0,STARLINK-4085,PAYLOAD,2023-12-24 14:25:33,15.08845686,0.0001532,53.2154,212.7972,92.0361,268.0806,8.1154e-05,1.004e-05,0.0,0 STARLINK-4085,1 53262U 22086W   23358.60107841  .00001004  00000-0  81154-4 0  9992,2 53262  53.2154 212.7972 0001532  92.0361 268.0806 15.08845686 79379,6917.863,95.437,540.788,538.668,0.0
53262.0,STARLINK-4085,PAYLOAD,2023-12-24 20:47:05,15.08851089,0.0001464,53.2147,211.6079,94.0544,266.0616,0.00017034,2.425e-05,0.0,0 STARLINK-4085,1 53262U 22086W   23358.86603498  .00002425  00000-0  17034-3 0  9992,2 53262  53.2147 211.6079 0001464  94.0544 266.0616 15.08851089 79412,6917.846,95.437,540.724,538.699,0.0
53262.0,STARLINK-4085,PAYLOAD,2023-12-25 14:16:20,15.08843226,0.0001559,53.2139,208.339,74.9585,285.1579,0.00021453,3.128e-05,0.0,0 STARLINK-4085,1 53262U 22086W   23359.59467905  .00003128  00000-0  21453-3 0  9995,2 53262  53.2139 208.3390 0001559  74.9585 285.1579 15.08843226 79525,6917.871,95.437,540.814,538.657,0.0
53262.0,STARLINK-4085,PAYLOAD,2023-12-25 19:02:29,15.08840873,0.0001497,53.2147,207.4444,85.3958,274.7205,7.1138e-05,8.44e-06,0.0,0 STARLINK-4085,1 53262U 22086W   23359.79339949  .00000844  00000-0  71138-4 0  9991,2 53262  53.2147 207.4444 0001497  85.3958 274.7205 15.08840873 79373,6917.878,95.437,540.778,538.707,0.0
53262.0,STARLINK-4085,PAYLOAD,2023-12-25 20:37:52,15.08841105,0.0001501,53.2146,207.1469,86.5007,273.6157,6.6069e-05,7.64e-06,0.0,0 STARLINK-4085,1 53262U 22086W   23359.85963906  .00000764  00000-0  66069-4 0  9992,2 53262  53.2146 207.1469 0001501  86.5007 273.6157 15.08841105 79564,6917.877,95.437,540.78,538.704,0.0
53262.0,STARLINK-4085,PAYLOAD,2023-12-25 23:48:38,15.08842872,0.0001464,53.2157,206.5513,94.3331,265.7828,7.1739e-05,8.54e-06,0.0,0 STARLINK-4085,1 53262U 22086W   23359.99211653  .00000854  00000-0  71739-4 0  9992,2 53262  53.2157 206.5513 0001464  94.3331 265.7828 15.08842872 79585,6917.872,95.437,540.749,538.724,0.0
53262.0,STARLINK-4085,PAYLOAD,2023-12-26 18:53:17,15.08798508,0.000177,53.2161,202.9816,98.3313,261.7879,0.00053549,8.235e-05,0.0,0 STARLINK-4085,1 53262U 22086W   23360.78701169  .00008235  00000-0  53549-3 0  9996,2 53262  53.2161 202.9816 0001770  98.3313 261.7879 15.08798508 79522,6918.007,95.44,541.097,538.648,0.0
53262.0,STARLINK-4085,PAYLOAD,2023-12-26 20:28:41,15.08777196,0.000182,53.2161,202.6843,98.0401,262.0798,0.00084379,0.00013143,0.0,0 STARLINK-4085,1 53262U 22086W   23360.85325702  .00013143  00000-0  84379-3 0  9998,2 53262  53.2161 202.6843 0001820  98.0401 262.0798 15.08777196 79715,6918.072,95.442,541.196,538.678,0.0
53262.0,STARLINK-4085,PAYLOAD,2023-12-26 23:39:26,15.08831192,0.00015,53.216,202.0895,100.3308,259.7853,8.5492e-05,1.073e-05,0.0,0 STARLINK-4085,1 53262U 22086W   23360.98572333  .00001073  00000-0  85492-4 0  9993,2 53262  53.2160 202.0895 0001500 100.3308 259.7853 15.08831192 79557,6917.907,95.438,540.81,538.735,0.0
53262.0,STARLINK-4085,PAYLOAD,2023-12-27 13:57:54,15.08839473,0.0001497,53.2161,199.4129,99.5043,260.6118,6.0376e-05,6.73e-06,0.0,0 STARLINK-4085,1 53262U 22086W   23361.58187873  .00000673  00000-0  60376-4 0  9990,2 53262  53.2161 199.4129 0001497  99.5043 260.6118 15.08839473 79822,6917.882,95.438,540.783,538.711,0.0
53262.0,STARLINK-4085,PAYLOAD,2023-12-27 18:44:03,15.08840835,0.0001508,53.2161,198.521,98.3889,261.7274,7.0475e-05,8.34e-06,0.0,0 STARLINK-4085,1 53262U 22086W   23361.78059769  .00000834  00000-0  70475-4 0  9994,2 53262  53.2161 198.5210 0001508  98.3889 261.7274 15.08840835 79673,6917.878,95.438,540.786,538.7,0.0
53262.0,STARLINK-4085,PAYLOAD,2023-12-27 20:19:26,15.08841216,0.0001508,53.2161,198.2236,98.1875,261.9288,7.0714e-05,8.38e-06,0.0,0 STARLINK-4085,1 53262U 22086W   23361.84683707  .00000838  00000-0  70714-4 0  9996,2 53262  53.2161 198.2236 0001508  98.1875 261.9288 15.08841216 79863,6917.877,95.437,540.785,538.698,0.0
53262.0,STARLINK-4085,PAYLOAD,2023-12-28 18:34:50,15.08837991,0.0001481,53.2161,194.0612,98.7397,261.3763,6.3435e-05,7.22e-06,0.0,0 STARLINK-4085,1 53262U 22086W   23362.77420043  .00000722  00000-0  63435-4 0  9995,2 53262  53.2161 194.0612 0001481  98.7397 261.3763 15.08837991 80005,6917.887,95.438,540.776,538.727,0.0
53262.0,STARLINK-4085,PAYLOAD,2023-12-29 12:04:05,15.08837641,0.0001569,53.2165,190.7897,102.9353,257.1814,2.9182e-05,1.76e-06,0.0,0 STARLINK-4085,1 53262U 22086W   23363.50284255  .00000176  00000-0  29182-4 0  9994,2 53262  53.2165 190.7897 0001569 102.9353 257.1814 15.08837641 80118,6917.888,95.438,540.838,538.667,0.0
53262.0,STARLINK-4085,PAYLOAD,2023-12-29 20:01:01,15.08837985,0.0001472,53.2162,189.3027,94.6762,265.4399,2.7685e-06,-2.44e-06,0.0,0 STARLINK-4085,1 53262U 22086W   23363.83404339 -.00000244  00000-0  27685-5 0  9991,2 53262  53.2162 189.3027 0001472  94.6762 265.4399 15.08837985 79982,6917.887,95.438,540.77,538.733,0.0
53262.0,STARLINK-4085,PAYLOAD,2023-12-30 19:51:48,15.0884128,0.0001447,53.2164,184.8424,89.9057,270.2101,7.4082e-05,8.91e-06,0.0,0 STARLINK-4085,1 53262U 22086W   23364.82763983  .00000891  00000-0  74082-4 0  9993,2 53262  53.2164 184.8424 0001447  89.9057 270.2101 15.08841280 80318,6917.876,95.437,540.742,538.74,0.0
